[{"OBJECT_NAME":"STARLINK-34149","OBJECT_ID":"2025-111T","EPOCH":"2026-03-09T00:49:36.191424","MEAN_MOTION":15.27611973,"ECCENTRICITY":0.00020155,"INCLINATION":43.0106,"RA_OF_ASC_NODE":81.5356,"ARG_OF_PERICENTER":297.0909,"MEAN_ANOMALY":62.9737,"EPHEMERIS_TYPE":0,"CLASSIFICATION_TYPE":"U","NORAD_CAT_ID":64140,"ELEMENT_SET_NO":999,"REV_AT_EPOCH":4536,"BSTAR":0.001792964,"MEAN_MOTION_DOT":0.00049457,"MEAN_MOTION_DDOT":0},{"OBJECT_NAME":"ARIANE 40 R\/B","OBJECT_ID":"1999-064C","EPOCH":"2026-03-09T18:24:37.025280","MEAN_MOTION":15.31364882,"ECCENTRICITY":0.00050095,"INCLINATION":98.1631,"RA_OF_ASC_NODE":150.8872,"ARG_OF_PERICENTER":91.4057,"MEAN_ANOMALY":268.7755,"EPHEMERIS_TYPE":0,"CLASSIFICATION_TYPE":"U","NORAD_CAT_ID":25979,"ELEMENT_SET_NO":999,"REV_AT_EPOCH":42869,"BSTAR":0.00066758353,"MEAN_MOTION_DOT":0.00020173,"MEAN_MOTION_DDOT":0}]
